[{"OBJECT_NAME":"USA 167","OBJECT_ID":"2003-008A","EPOCH":"2026-04-27T06:33:04.262400","MEAN_MOTION":1.00273911,"ECCENTRICITY":0.00050708,"INCLINATION":10.8635,"RA_OF_ASC_NODE":43.8608,"ARG_OF_PERICENTER":307.5241,"MEAN_ANOMALY":199.961,"EPHEMERIS_TYPE":0,"CLASSIFICATION_TYPE":"U","NORAD_CAT_ID":27691,"ELEMENT_SET_NO":999,"REV_AT_EPOCH":626,"BSTAR":0,"MEAN_MOTION_DOT":0,"MEAN_MOTION_DDOT":0},{"OBJECT_NAME":"USA 169 (MILSTAR-2 4)","OBJECT_ID":"2003-012A","EPOCH":"2026-04-27T06:35:34.766016","MEAN_MOTION":1.00272712,"ECCENTRICITY":0.01019704,"INCLINATION":12.275,"RA_OF_ASC_NODE":30.2544,"ARG_OF_PERICENTER":6.4726,"MEAN_ANOMALY":69.5759,"EPHEMERIS_TYPE":0,"CLASSIFICATION_TYPE":"U","NORAD_CAT_ID":27711,"ELEMENT_SET_NO":999,"REV_AT_EPOCH":3244,"BSTAR":0,"MEAN_MOTION_DOT":-2.71e-6,"MEAN_MOTION_DDOT":0},{"OBJECT_NAME":"ASIASAT 4","OBJECT_ID":"2003-014A","EPOCH":"2026-04-27T05:18:38.510784","MEAN_MOTION":1.00270642,"ECCENTRICITY":0.00027953,"INCLINATION":4.5753,"RA_OF_ASC_NODE":76.3682,"ARG_OF_PERICENTER":328.9574,"MEAN_ANOMALY":37.1001,"EPHEMERIS_TYPE":0,"CLASSIFICATION_TYPE":"U","NORAD_CAT_ID":27718,"ELEMENT_SET_NO":999,"REV_AT_EPOCH":4479,"BSTAR":0,"MEAN_MOTION_DOT":-2.29e-6,"MEAN_MOTION_DDOT":0},{"OBJECT_NAME":"HELLAS-SAT 2","OBJECT_ID":"2003-020A","EPOCH":"2026-04-27T05:28:38.743680","MEAN_MOTION":1.00272026,"ECCENTRICITY":0.00044087,"INCLINATION":7.2309,"RA_OF_ASC_NODE":68.4825,"ARG_OF_PERICENTER":293.0265,"MEAN_ANOMALY":285.876,"EPHEMERIS_TYPE":0,"CLASSIFICATION_TYPE":"U","NORAD_CAT_ID":27811,"ELEMENT_SET_NO":999,"REV_AT_EPOCH":4233,"BSTAR":0,"MEAN_MOTION_DOT":-8.9e-7,"MEAN_MOTION_DDOT":0},{"OBJECT_NAME":"THURAYA-2","OBJECT_ID":"2003-026A","EPOCH":"2026-04-26T22:46:15.150144","MEAN_MOTION":1.00273251,"ECCENTRICITY":0.0003477,"INCLINATION":8.7634,"RA_OF_ASC_NODE":32.1841,"ARG_OF_PERICENTER":344.0443,"MEAN_ANOMALY":224.2851,"EPHEMERIS_TYPE":0,"CLASSIFICATION_TYPE":"U","NORAD_CAT_ID":27825,"ELEMENT_SET_NO":999,"REV_AT_EPOCH":8383,"BSTAR":0,"MEAN_MOTION_DOT":1.17e-6,"MEAN_MOTION_DDOT":0},{"OBJECT_NAME":"OPTUS C1","OBJECT_ID":"2003-028B","EPOCH":"2026-04-26T17:58:12.292896","MEAN_MOTION":1.00270192,"ECCENTRICITY":0.00061742,"INCLINATION":6.764,"RA_OF_ASC_NODE":70.0207,"ARG_OF_PERICENTER":324.6442,"MEAN_ANOMALY":245.3376,"EPHEMERIS_TYPE":0,"CLASSIFICATION_TYPE":"U","NORAD_CAT_ID":27831,"ELEMENT_SET_NO":999,"REV_AT_EPOCH":5254,"BSTAR":0,"MEAN_MOTION_DOT":-1.59e-6,"MEAN_MOTION_DDOT":0},{"OBJECT_NAME":"USA 170","OBJECT_ID":"2003-040A","EPOCH":"2026-04-26T23:56:57.511968","MEAN_MOTION":1.00268595,"ECCENTRICITY":0.00020148,"INCLINATION":10.3952,"RA_OF_ASC_NODE":48.4278,"ARG_OF_PERICENTER":356.6109,"MEAN_ANOMALY":193.3955,"EPHEMERIS_TYPE":0,"CLASSIFICATION_TYPE":"U","NORAD_CAT_ID":27875,"ELEMENT_SET_NO":999,"REV_AT_EPOCH":3248,"BSTAR":0,"MEAN_MOTION_DOT":1.19e-6,"MEAN_MOTION_DDOT":0},{"OBJECT_NAME":"GALAXY 13 (HORIZONS-1)","OBJECT_ID":"2003-044A","EPOCH":"2026-04-27T00:49:59.924640","MEAN_MOTION":1.00273581,"ECCENTRICITY":0.00022058,"INCLINATION":1.2871,"RA_OF_ASC_NODE":84.4613,"ARG_OF_PERICENTER":314.6722,"MEAN_ANOMALY":38.3979,"EPHEMERIS_TYPE":0,"CLASSIFICATION_TYPE":"U","NORAD_CAT_ID":27954,"ELEMENT_SET_NO":999,"REV_AT_EPOCH":4605,"BSTAR":0,"MEAN_MOTION_DOT":1.23e-6,"MEAN_MOTION_DDOT":0},{"OBJECT_NAME":"YAMAL 202","OBJECT_ID":"2003-053A","EPOCH":"2026-04-26T21:15:28.957248","MEAN_MOTION":1.00271073,"ECCENTRICITY":0.00038775,"INCLINATION":6.2149,"RA_OF_ASC_NODE":71.5465,"ARG_OF_PERICENTER":296.6615,"MEAN_ANOMALY":329.1005,"EPHEMERIS_TYPE":0,"CLASSIFICATION_TYPE":"U","NORAD_CAT_ID":28089,"ELEMENT_SET_NO":999,"REV_AT_EPOCH":8218,"BSTAR":0,"MEAN_MOTION_DOT":-8.7e-7,"MEAN_MOTION_DDOT":0},{"OBJECT_NAME":"UFO 11 (USA 174)","OBJECT_ID":"2003-057A","EPOCH":"2026-04-26T21:27:18.561312","MEAN_MOTION":1.00272084,"ECCENTRICITY":0.00027182,"INCLINATION":8.9344,"RA_OF_ASC_NODE":34.0784,"ARG_OF_PERICENTER":347.4563,"MEAN_ANOMALY":230.6117,"EPHEMERIS_TYPE":0,"CLASSIFICATION_TYPE":"U","NORAD_CAT_ID":28117,"ELEMENT_SET_NO":999,"REV_AT_EPOCH":8193,"BSTAR":0,"MEAN_MOTION_DOT":-1.11e-6,"MEAN_MOTION_DDOT":0},{"OBJECT_NAME":"USA 176 (DSP 22)","OBJECT_ID":"2004-004A","EPOCH":"2026-04-27T04:35:38.533344","MEAN_MOTION":1.00424064,"ECCENTRICITY":0.000207,"INCLINATION":11.9956,"RA_OF_ASC_NODE":26.4487,"ARG_OF_PERICENTER":303.509,"MEAN_ANOMALY":240.7546,"EPHEMERIS_TYPE":0,"CLASSIFICATION_TYPE":"U","NORAD_CAT_ID":28158,"ELEMENT_SET_NO":999,"REV_AT_EPOCH":3242,"BSTAR":0,"MEAN_MOTION_DOT":-2.88e-6,"MEAN_MOTION_DDOT":0},{"OBJECT_NAME":"ABS-4 (MOBISAT-1)","OBJECT_ID":"2004-007A","EPOCH":"2026-04-27T00:07:26.505696","MEAN_MOTION":1.00272956,"ECCENTRICITY":0.00054422,"INCLINATION":5.9135,"RA_OF_ASC_NODE":72.6159,"ARG_OF_PERICENTER":326.0194,"MEAN_ANOMALY":239.1963,"EPHEMERIS_TYPE":0,"CLASSIFICATION_TYPE":"U","NORAD_CAT_ID":28184,"ELEMENT_SET_NO":999,"REV_AT_EPOCH":5182,"BSTAR":0,"MEAN_MOTION_DOT":3.2e-7,"MEAN_MOTION_DDOT":0},{"OBJECT_NAME":"AMC-11","OBJECT_ID":"2004-017A","EPOCH":"2026-04-27T04:46:42.142368","MEAN_MOTION":0.99091624,"ECCENTRICITY":6.259e-5,"INCLINATION":0.1579,"RA_OF_ASC_NODE":76.7085,"ARG_OF_PERICENTER":334.3227,"MEAN_ANOMALY":88.367,"EPHEMERIS_TYPE":0,"CLASSIFICATION_TYPE":"U","NORAD_CAT_ID":28252,"ELEMENT_SET_NO":999,"REV_AT_EPOCH":8035,"BSTAR":0,"MEAN_MOTION_DOT":2.7e-7,"MEAN_MOTION_DDOT":0},{"OBJECT_NAME":"INTELSAT 10-02","OBJECT_ID":"2004-022A","EPOCH":"2026-04-27T05:20:38.796864","MEAN_MOTION":1.00270002,"ECCENTRICITY":0.00012665,"INCLINATION":0.0153,"RA_OF_ASC_NODE":73.7645,"ARG_OF_PERICENTER":0.9311,"MEAN_ANOMALY":219.6436,"EPHEMERIS_TYPE":0,"CLASSIFICATION_TYPE":"U","NORAD_CAT_ID":28358,"ELEMENT_SET_NO":999,"REV_AT_EPOCH":8004,"BSTAR":0,"MEAN_MOTION_DOT":0,"MEAN_MOTION_DDOT":0},{"OBJECT_NAME":"ANIK F2","OBJECT_ID":"2004-027A","EPOCH":"2026-04-27T05:01:51.511872","MEAN_MOTION":1.00271671,"ECCENTRICITY":0.00043941,"INCLINATION":3.1565,"RA_OF_ASC_NODE":80.1053,"ARG_OF_PERICENTER":333.5472,"MEAN_ANOMALY":125.8797,"EPHEMERIS_TYPE":0,"CLASSIFICATION_TYPE":"U","NORAD_CAT_ID":28378,"ELEMENT_SET_NO":999,"REV_AT_EPOCH":4075,"BSTAR":0,"MEAN_MOTION_DOT":-5.7e-7,"MEAN_MOTION_DDOT":0},{"OBJECT_NAME":"AMC-15","OBJECT_ID":"2004-041A","EPOCH":"2026-04-27T06:40:43.511232","MEAN_MOTION":1.00272145,"ECCENTRICITY":0.00023958,"INCLINATION":0.0512,"RA_OF_ASC_NODE":56.1768,"ARG_OF_PERICENTER":334.6186,"MEAN_ANOMALY":179.5915,"EPHEMERIS_TYPE":0,"CLASSIFICATION_TYPE":"U","NORAD_CAT_ID":28446,"ELEMENT_SET_NO":999,"REV_AT_EPOCH":7879,"BSTAR":0,"MEAN_MOTION_DOT":-9.9e-7,"MEAN_MOTION_DDOT":0},{"OBJECT_NAME":"NSS-10","OBJECT_ID":"2005-003A","EPOCH":"2026-04-26T18:31:20.959968","MEAN_MOTION":1.00271746,"ECCENTRICITY":0.00031502,"INCLINATION":6.3239,"RA_OF_ASC_NODE":71.0646,"ARG_OF_PERICENTER":319.5106,"MEAN_ANOMALY":64.5797,"EPHEMERIS_TYPE":0,"CLASSIFICATION_TYPE":"U","NORAD_CAT_ID":28526,"ELEMENT_SET_NO":999,"REV_AT_EPOCH":5264,"BSTAR":0,"MEAN_MOTION_DOT":-2.58e-6,"MEAN_MOTION_DDOT":0}]
